GLOBALSTAR M069         
1 31573U 07020C   26198.98657954 -.00000089  00000+0  31749-4 0  9992
2 31573  52.0009 164.9508 0001573 216.3139 186.7482 12.23472307882578
GLOBALSTAR M072         
1 31574U 07020D   26198.82383337 -.00000080  00000+0  61390-4 0  9993
2 31574  51.9949  18.6823 0001651  40.5139 333.6053 11.91658844878634
GLOBALSTAR M066         
1 32265U 07048C   26198.80704101 -.00000040  00000+0  45869-3 0  9993
2 32265  51.9610 330.0128 0005573 106.9042  58.4450 12.30389774863996
GLOBALSTAR M079         
1 37188U 10054A   26198.96176803 -.00000106  00000+0 -11032-4 0  9992
2 37188  52.0055  14.9875 0001131  82.5140  82.7742 12.62266439726439
GLOBALSTAR M074         
1 37189U 10054B   26198.90890626 -.00000107  00000+0 -19610-4 0  9994
2 37189  52.0034  14.4093 0000867  96.7229  68.1707 12.62262051727036
GLOBALSTAR M076         
1 37190U 10054C   26198.93504730 -.00000089  00000+0  84856-4 0  9999
2 37190  52.0048  14.5354 0001103  96.1656  67.4837 12.62262524726755
GLOBALSTAR M077         
1 37191U 10054D   26198.94820500 -.00000103  00000+0 -46558-3 0  9991
2 37191  51.9959 101.2193 0002217 230.2944 213.6603 11.67547281724730
GLOBALSTAR M075         
1 37192U 10054E   26198.93526340 -.00000094  00000+0  51786-4 0  9994
2 37192  51.9956  56.5717 0000779  68.7949  36.4126 12.62267880725824
GLOBALSTAR M073         
1 37193U 10054F   26198.79027539 -.00000094  00000+0  57027-4 0  9999
2 37193  52.0081 331.1378 0001030 100.3538  63.9969 12.62266951727795
GLOBALSTAR M083         
1 37739U 11033A   26198.96301366 -.00000079  00000+0  13751-3 0  9993
2 37739  51.9860 278.7998 0000720 108.8964  62.0473 12.62264286696838
GLOBALSTAR M088         
1 37740U 11033B   26198.98608811 -.00000116  00000+0 -70609-4 0  9991
2 37740  52.0189 185.2297 0000084  49.6726 344.9111 12.62269485692384
GLOBALSTAR M091         
1 37741U 11033C   26198.92131815 -.00000104  00000+0  61536-6 0  9998
2 37741  51.9983 148.3465 0000488  29.0765  11.6026 12.62264248693167
GLOBALSTAR M085         
1 37742U 11033D   26198.91693216 -.00000085  00000+0  10507-3 0  9993
2 37742  52.0126  99.6792 0000834  45.5716  35.1749 12.62264382693672
GLOBALSTAR M081         
1 37743U 11033E   26198.94339442 -.00000091  00000+0  70725-4 0  9991
2 37743  51.9957 101.9996 0000722  58.2873  22.6300 12.62265296693823
GLOBALSTAR M089         
1 37744U 11033F   26198.90841676 -.00000096  00000+0  44728-4 0  9994
2 37744  51.9939  56.2590 0000709  91.3868  11.6355 12.62267600694665
GLOBALSTAR M084         
1 38040U 11080A   26198.69765578 -.00000079  00000+0  13765-3 0  9995
2 38040  52.0016 284.3999 0000773 133.2621  31.3380 12.62263600672618
